{
    "week": 296,
    "satellites": [
        {
            "Name": "COSMOS 2485 (747)",
            "Line1": "1 39155U 13019A   24342.84075165  .00000025  00000+0  00000+0 0  9993",
            "Line2": "2 39155  65.1233  92.3202 0023894 229.0052 130.7923  2.13104269 90427",
            "SatelliteNumber": "39155",
            "Classification": "U",
            "LaunchYear": "13",
            "LaunchNumber": "019",
            "PieceOfLaunch": "A",
            "EpochYear": "24",
            "EpochDay": 342.84075165,
            "FirstDerivativeMeanMotion": 2.5e-07,
            "SecondDerivativeMeanMotion": "00000+0",
            "BSTAR": "00000+0",
            "SetNumber": "999",
            "Inclination": 65.1233,
            "RAAN": 92.3202,
            "Eccentricity": 0.0023894,
            "ArgumentOfPerigee": 229.0052,
            "MeanAnomaly": 130.7923,
            "MeanMotion": 2.13104269,
            "RevolutionNumber": "9042"
        },
        {
            "Name": "COSMOS 2492 (754)",
            "Line1": "1 39620U 14012A   24344.20391205 -.00000027  00000+0  00000+0 0  9995",
            "Line2": "2 39620  65.5987 332.7342 0014653 311.9085  47.9846  2.13103054 83415",
            "SatelliteNumber": "39620",
            "Classification": "U",
            "LaunchYear": "14",
            "LaunchNumber": "012",
            "PieceOfLaunch": "A",
            "EpochYear": "24",
            "EpochDay": 344.20391205,
            "FirstDerivativeMeanMotion": -2.7e-07,
            "SecondDerivativeMeanMotion": "00000+0",
            "BSTAR": "00000+0",
            "SetNumber": "999",
            "Inclination": 65.5987,
            "RAAN": 332.7342,
            "Eccentricity": 0.0014653,
            "ArgumentOfPerigee": 311.9085,
            "MeanAnomaly": 47.9846,
            "MeanMotion": 2.13103054,
            "RevolutionNumber": "8341"
        },
        {
            "Name": "COSMOS 2500 (755)",
            "Line1": "1 40001U 14032A   24344.38097430 -.00000028  00000+0  00000+0 0  9995",
            "Line2": "2 40001  65.5354 332.5196 0008115 222.6575 137.2972  2.13105843 81634",
            "SatelliteNumber": "40001",
            "Classification": "U",
            "LaunchYear": "14",
            "LaunchNumber": "032",
            "PieceOfLaunch": "A",
            "EpochYear": "24",
            "EpochDay": 344.3809743,
            "FirstDerivativeMeanMotion": -2.8e-07,
            "SecondDerivativeMeanMotion": "00000+0",
            "BSTAR": "00000+0",
            "SetNumber": "999",
            "Inclination": 65.5354,
            "RAAN": 332.5196,
            "Eccentricity": 0.0008115,
            "ArgumentOfPerigee": 222.6575,
            "MeanAnomaly": 137.2972,
            "MeanMotion": 2.13105843,
            "RevolutionNumber": "8163"
        },
        {
            "Name": "COSMOS 2501 (702K)",
            "Line1": "1 40315U 14075A   24344.16700011  .00000074  00000+0  00000+0 0  9992",
            "Line2": "2 40315  63.6162 209.5996 0019150 204.5985 155.3924  2.13101328 78025",
            "SatelliteNumber": "40315",
            "Classification": "U",
            "LaunchYear": "14",
            "LaunchNumber": "075",
            "PieceOfLaunch": "A",
            "EpochYear": "24",
            "EpochDay": 344.16700011,
            "FirstDerivativeMeanMotion": 7.4e-07,
            "SecondDerivativeMeanMotion": "00000+0",
            "BSTAR": "00000+0",
            "SetNumber": "999",
            "Inclination": 63.6162,
            "RAAN": 209.5996,
            "Eccentricity": 0.001915,
            "ArgumentOfPerigee": 204.5985,
            "MeanAnomaly": 155.3924,
            "MeanMotion": 2.13101328,
            "RevolutionNumber": "7802"
        },
        {
            "Name": "COSMOS 2514 (751)",
            "Line1": "1 41330U 16008A   24344.14991267 -.00000027  00000+0  00000+0 0  9990",
            "Line2": "2 41330  65.3289 331.9926 0012195 222.8622 137.0601  2.13102466 68794",
            "SatelliteNumber": "41330",
            "Classification": "U",
            "LaunchYear": "16",
            "LaunchNumber": "008",
            "PieceOfLaunch": "A",
            "EpochYear": "24",
            "EpochDay": 344.14991267,
            "FirstDerivativeMeanMotion": -2.7e-07,
            "SecondDerivativeMeanMotion": "00000+0",
            "BSTAR": "00000+0",
            "SetNumber": "999",
            "Inclination": 65.3289,
            "RAAN": 331.9926,
            "Eccentricity": 0.0012195,
            "ArgumentOfPerigee": 222.8622,
            "MeanAnomaly": 137.0601,
            "MeanMotion": 2.13102466,
            "RevolutionNumber": "6879"
        },
        {
            "Name": "COSMOS 2522 (752)",
            "Line1": "1 42939U 17055A   24344.92817666  .00000078  00000+0  00000+0 0  9990",
            "Line2": "2 42939  64.0776 210.7649 0006102 230.0340 129.9961  2.13101863 56169",
            "SatelliteNumber": "42939",
            "Classification": "U",
            "LaunchYear": "17",
            "LaunchNumber": "055",
            "PieceOfLaunch": "A",
            "EpochYear": "24",
            "EpochDay": 344.92817666,
            "FirstDerivativeMeanMotion": 7.8e-07,
            "SecondDerivativeMeanMotion": "00000+0",
            "BSTAR": "00000+0",
            "SetNumber": "999",
            "Inclination": 64.0776,
            "RAAN": 210.7649,
            "Eccentricity": 0.0006102,
            "ArgumentOfPerigee": 230.034,
            "MeanAnomaly": 129.9961,
            "MeanMotion": 2.13101863,
            "RevolutionNumber": "5616"
        },
        {
            "Name": "COSMOS 2527 (756)",
            "Line1": "1 43508U 18053A   24344.41836117  .00000009  00000+0  00000+0 0  9992",
            "Line2": "2 43508  65.2833  92.4557 0008674 223.1624 136.7695  2.13102143 50454",
            "SatelliteNumber": "43508",
            "Classification": "U",
            "LaunchYear": "18",
            "LaunchNumber": "053",
            "PieceOfLaunch": "A",
            "EpochYear": "24",
            "EpochDay": 344.41836117,
            "FirstDerivativeMeanMotion": 9e-08,
            "SecondDerivativeMeanMotion": "00000+0",
            "BSTAR": "00000+0",
            "SetNumber": "999",
            "Inclination": 65.2833,
            "RAAN": 92.4557,
            "Eccentricity": 0.0008674,
            "ArgumentOfPerigee": 223.1624,
            "MeanAnomaly": 136.7695,
            "MeanMotion": 2.13102143,
            "RevolutionNumber": "5045"
        },
        {
            "Name": "COSMOS 2529 (757)",
            "Line1": "1 43687U 18086A   24344.04777982  .00000070  00000+0  00000+0 0  9997",
            "Line2": "2 43687  64.2931 211.3548 0007257 260.4883  99.5123  2.13101918 47456",
            "SatelliteNumber": "43687",
            "Classification": "U",
            "LaunchYear": "18",
            "LaunchNumber": "086",
            "PieceOfLaunch": "A",
            "EpochYear": "24",
            "EpochDay": 344.04777982,
            "FirstDerivativeMeanMotion": 7e-07,
            "SecondDerivativeMeanMotion": "00000+0",
            "BSTAR": "00000+0",
            "SetNumber": "999",
            "Inclination": 64.2931,
            "RAAN": 211.3548,
            "Eccentricity": 0.0007257,
            "ArgumentOfPerigee": 260.4883,
            "MeanAnomaly": 99.5123,
            "MeanMotion": 2.13101918,
            "RevolutionNumber": "4745"
        },
        {
            "Name": "COSMOS 2534 (758)",
            "Line1": "1 44299U 19030A   24342.85179086  .00000064  00000+0  00000+0 0  9998",
            "Line2": "2 44299  64.3662 211.3651 0009512 287.8774   8.8355  2.13101921 43068",
            "SatelliteNumber": "44299",
            "Classification": "U",
            "LaunchYear": "19",
            "LaunchNumber": "030",
            "PieceOfLaunch": "A",
            "EpochYear": "24",
            "EpochDay": 342.85179086,
            "FirstDerivativeMeanMotion": 6.4e-07,
            "SecondDerivativeMeanMotion": "00000+0",
            "BSTAR": "00000+0",
            "SetNumber": "999",
            "Inclination": 64.3662,
            "RAAN": 211.3651,
            "Eccentricity": 0.0009512,
            "ArgumentOfPerigee": 287.8774,
            "MeanAnomaly": 8.8355,
            "MeanMotion": 2.13101921,
            "RevolutionNumber": "4306"
        },
        {
            "Name": "COSMOS 2544 (759)",
            "Line1": "1 44850U 19088A   24344.36256640  .00000009  00000+0  00000+0 0  9993",
            "Line2": "2 44850  65.2703  92.2913 0013274 249.4915 110.3663  2.13101895 38891",
            "SatelliteNumber": "44850",
            "Classification": "U",
            "LaunchYear": "19",
            "LaunchNumber": "088",
            "PieceOfLaunch": "A",
            "EpochYear": "24",
            "EpochDay": 344.3625664,
            "FirstDerivativeMeanMotion": 9e-08,
            "SecondDerivativeMeanMotion": "00000+0",
            "BSTAR": "00000+0",
            "SetNumber": "999",
            "Inclination": 65.2703,
            "RAAN": 92.2913,
            "Eccentricity": 0.0013274,
            "ArgumentOfPerigee": 249.4915,
            "MeanAnomaly": 110.3663,
            "MeanMotion": 2.13101895,
            "RevolutionNumber": "3889"
        }
    ]
}